[{
    "_id": {
      "$oid": "652fcf6e135933259098ce57"
    },
    "COMMENT": "GENERATED VIA SPACETRACK.ORG API",
    "ORIGINATOR": "18 SPCS",
    "NORAD_CAT_ID": "25545",
    "OBJECT_NAME": "SL-13 R/B",
    "OBJECT_TYPE": "ROCKET BODY",
    "CLASSIFICATION_TYPE": "U",
    "INTLDES": "98067B",
    "EPOCH": "1998-11-20 06:49:59",
    "EPOCH_MICROSECONDS": "999807",
    "MEAN_MOTION": "16.08649866",
    "ECCENTRICITY": "0.0109679",
    "INCLINATION": "51.6016",
    "RA_OF_ASC_NODE": "168.3764",
    "ARG_OF_PERICENTER": "87.4226",
    "MEAN_ANOMALY": "358.7689",
    "EPHEMERIS_TYPE": "0",
    "ELEMENT_SET_NO": "999",
    "REV_AT_EPOCH": "0",
    "BSTAR": "0",
    "MEAN_MOTION_DOT": "-0.00003683",
    "MEAN_MOTION_DDOT": "0.000011644",
    "FILE": "35498",
    "PRICE": 1000,
    "TLE_LINE0": "0 SL-13 R/B",
    "TLE_LINE1": "1 25545U 98067B   98324.28472222 -.00003683  11644-4  00000+0 0  9996",
    "TLE_LINE2": "2 25545 051.6016 168.3764 0109679 087.4226 358.7689 16.08649866    08",
    "OBJECT_ID": "1998-067B",
    "OBJECT_NUMBER": "25545",
    "SEMIMAJOR_AXIS": "6628.691",
    "PERIOD": "89.516",
    "APOGEE": "323.259",
    "PERIGEE": "177.853",
    "DECAYED": "1",
    "__v": 0
  },
  {
    "_id": {
      "$oid": "652fcf72135933259098ce5a"
    },
    "COMMENT": "GENERATED VIA SPACETRACK.ORG API",
    "ORIGINATOR": "18 SPCS",
    "NORAD_CAT_ID": "25546",
    "OBJECT_NAME": "BONUM 1",
    "OBJECT_TYPE": "PAYLOAD",
    "CLASSIFICATION_TYPE": "U",
    "INTLDES": "98068A",
    "EPOCH": "1998-11-23 23:26:15",
    "EPOCH_MICROSECONDS": "944351",
    "MEAN_MOTION": "2.14736671",
    "ECCENTRICITY": "0.697817",
    "INCLINATION": "19.4914",
    "RA_OF_ASC_NODE": "234.6431",
    "ARG_OF_PERICENTER": "357.911",
    "MEAN_ANOMALY": "0.3675",
    "EPHEMERIS_TYPE": "0",
    "ELEMENT_SET_NO": "999",
    "REV_AT_EPOCH": "2",
    "BSTAR": "0",
    "MEAN_MOTION_DOT": "-0.00000144",
    "MEAN_MOTION_DDOT": "0",
    "FILE": "35499",
    "PRICE": 1000,
    "TLE_LINE0": "0 BONUM 1",
    "TLE_LINE1": "1 25546U 98068A   98327.97657343 -.00000144 +00000-0 +00000-0 0  9996",
    "TLE_LINE2": "2 25546 019.4914 234.6431 6978170 357.9110 000.3675 02.14736671000029",
    "OBJECT_ID": "1998-068A",
    "OBJECT_NUMBER": "25546",
    "SEMIMAJOR_AXIS": "25378.424",
    "PERIOD": "670.589",
    "APOGEE": "36709.784",
    "PERIGEE": "1290.793",
    "DECAYED": "0",
    "__v": 0
  },
  {
    "_id": {
      "$oid": "652fcf75135933259098ce5c"
    },
    "COMMENT": "GENERATED VIA SPACETRACK.ORG API",
    "ORIGINATOR": "18 SPCS",
    "NORAD_CAT_ID": "25547",
    "OBJECT_NAME": "DELTA 2 R/B(1)",
    "OBJECT_TYPE": "ROCKET BODY",
    "CLASSIFICATION_TYPE": "U",
    "INTLDES": "98068B",
    "EPOCH": "1998-11-23 14:49:07",
    "EPOCH_MICROSECONDS": "808736",
    "MEAN_MOTION": "13.94205423",
    "ECCENTRICITY": "0.087532",
    "INCLINATION": "25.7614",
    "RA_OF_ASC_NODE": "228.1321",
    "ARG_OF_PERICENTER": "266.12",
    "MEAN_ANOMALY": "83.9132",
    "EPHEMERIS_TYPE": "0",
    "ELEMENT_SET_NO": "999",
    "REV_AT_EPOCH": "13",
    "BSTAR": "0.00024063",
    "MEAN_MOTION_DOT": "0.00015272",
    "MEAN_MOTION_DDOT": "0",
    "FILE": "35499",
    "PRICE": 1000,
    "TLE_LINE0": "0 DELTA 2 R/B(1)",
    "TLE_LINE1": "1 25547U 98068B   98327.61745149  .00015272  00000-0  24063-3 0  9995",
    "TLE_LINE2": "2 25547 025.7614 228.1321 0875320 266.1200 083.9132 13.94205423   134",
    "OBJECT_ID": "1998-068B",
    "OBJECT_NUMBER": "25547",
    "SEMIMAJOR_AXIS": "7292.072",
    "PERIOD": "103.285",
    "APOGEE": "1552.227",
    "PERIGEE": "275.647",
    "DECAYED": "1",
    "__v": 0
  },
  {
    "_id": {
      "$oid": "652fcf77135933259098ce5e"
    },
    "COMMENT": "GENERATED VIA SPACETRACK.ORG API",
    "ORIGINATOR": "18 SPCS",
    "NORAD_CAT_ID": "25548",
    "OBJECT_NAME": "DELTA 2 R/B(2)",
    "OBJECT_TYPE": "ROCKET BODY",
    "CLASSIFICATION_TYPE": "U",
    "INTLDES": "98068C",
    "EPOCH": "2004-04-28 04:28:58",
    "EPOCH_MICROSECONDS": "312127",
    "MEAN_MOTION": "2.15168099",
    "ECCENTRICITY": "0.6969759",
    "INCLINATION": "20.2961",
    "RA_OF_ASC_NODE": "19.0928",
    "ARG_OF_PERICENTER": "318.9351",
    "MEAN_ANOMALY": "5.7979",
    "EPHEMERIS_TYPE": "0",
    "ELEMENT_SET_NO": "999",
    "REV_AT_EPOCH": "4270",
    "BSTAR": "0.0001",
    "MEAN_MOTION_DOT": "-0.00000084",
    "MEAN_MOTION_DDOT": "0",
    "FILE": "226",
    "PRICE": 1000,
    "TLE_LINE0": "0 DELTA 2 R/B(2)",
    "TLE_LINE1": "1 25548U 98068C   04119.18678602 -.00000084  00000-0  10000-3 0  9995",
    "TLE_LINE2": "2 25548  20.2961  19.0928 6969759 318.9351   5.7979  2.15168099 42707",
    "OBJECT_ID": "1998-068C",
    "OBJECT_NUMBER": "25548",
    "SEMIMAJOR_AXIS": "25344.488",
    "PERIOD": "669.244",
    "APOGEE": "36630.851",
    "PERIGEE": "1301.856",
    "DECAYED": "0",
    "__v": 0
  },
  {
    "_id": {
      "$oid": "652fcf7a135933259098ce60"
    },
    "COMMENT": "GENERATED VIA SPACETRACK.ORG API",
    "ORIGINATOR": "18 SPCS",
    "NORAD_CAT_ID": "25549",
    "OBJECT_NAME": "STS 88",
    "OBJECT_TYPE": "PAYLOAD",
    "CLASSIFICATION_TYPE": "U",
    "INTLDES": "98069A",
    "EPOCH": "1998-12-04 09:20:24",
    "EPOCH_MICROSECONDS": "349343",
    "MEAN_MOTION": "16.08190528",
    "ECCENTRICITY": "0.0107464",
    "INCLINATION": "51.5935",
    "RA_OF_ASC_NODE": "97.2893",
    "ARG_OF_PERICENTER": "10.5614",
    "MEAN_ANOMALY": "186.8743",
    "EPHEMERIS_TYPE": "0",
    "ELEMENT_SET_NO": "999",
    "REV_AT_EPOCH": "0",
    "BSTAR": "0.00001242",
    "MEAN_MOTION_DOT": "0.00022437",
    "MEAN_MOTION_DDOT": "0.000011562",
    "FILE": "35504",
    "PRICE": 1000,
    "TLE_LINE0": "0 STS 88",
    "TLE_LINE1": "1 25549U 98069A   98338.38917071  .00022437  11562-4  12420-4 0  9994",
    "TLE_LINE2": "2 25549 051.5935 097.2893 0107464 010.5614 186.8743 16.08190528    09",
    "OBJECT_ID": "1998-069A",
    "OBJECT_NUMBER": "25549",
    "SEMIMAJOR_AXIS": "6629.953",
    "PERIOD": "89.542",
    "APOGEE": "323.066",
    "PERIGEE": "180.570",
    "DECAYED": "1",
    "__v": 0
  },
  {
    "_id": {
      "$oid": "652fcf7d135933259098ce62"
    },
    "COMMENT": "GENERATED VIA SPACETRACK.ORG API",
    "ORIGINATOR": "18 SPCS",
    "NORAD_CAT_ID": "25550",
    "OBJECT_NAME": "SAC A",
    "OBJECT_TYPE": "PAYLOAD",
    "CLASSIFICATION_TYPE": "U",
    "INTLDES": "98069B",
    "EPOCH": "1998-12-14 13:05:15",
    "EPOCH_MICROSECONDS": "656640",
    "MEAN_MOTION": "15.58729134",
    "ECCENTRICITY": "0.0012774",
    "INCLINATION": "51.5782",
    "RA_OF_ASC_NODE": "45.4592",
    "ARG_OF_PERICENTER": "238.6508",
    "MEAN_ANOMALY": "121.3014",
    "EPHEMERIS_TYPE": "0",
    "ELEMENT_SET_NO": "999",
    "REV_AT_EPOCH": "6",
    "BSTAR": "-0.00046546",
    "MEAN_MOTION_DOT": "-0.00037058",
    "MEAN_MOTION_DDOT": "0",
    "FILE": "35504",
    "PRICE": 1000,
    "TLE_LINE0": "0 SAC A",
    "TLE_LINE1": "1 25550U 98069B   98348.54532010 -.00037058  00000-0 -46546-3 0  9994",
    "TLE_LINE2": "2 25550 051.5782 045.4592 0012774 238.6508 121.3014 15.58729134    62",
    "OBJECT_ID": "1998-069B",
    "OBJECT_NUMBER": "25550",
    "SEMIMAJOR_AXIS": "6769.475",
    "PERIOD": "92.383",
    "APOGEE": "399.988",
    "PERIGEE": "382.693",
    "DECAYED": "1",
    "__v": 0
  }]